[Satellite]
VERSION=1.1
NAME=STARLINK-5239
NICKNAME=STARLINK-5239
TLE1=1 54183U 22141AC  22321.58334491  .00025405  00000+0  18503-3 0  9993
TLE2=2 54183  53.2187  42.2479 0002848  14.4269 113.5755 15.73178706  1301
STATUS=0
